

*******************************************************************************
Ephemeris / WWW_USER Tue Nov 18 10:42:00 2025 Pasadena, USA      / Horizons
*******************************************************************************
Target body name: Earth (399)                     {source: DE441}
Center body name: Sun (10)                        {source: DE441}
Center-site name: BODY CENTER
*******************************************************************************
Start time      : A.D. 2031-Jan-01 00:00:00.0000 TDB
Stop  time      : A.D. 2031-Dec-30 00:00:00.0000 TDB
Step-size       : 60 minutes
*******************************************************************************
Center geodetic : 0.0, 0.0, 0.0                   {E-lon(deg),Lat(deg),Alt(km)}
Center cylindric: 0.0, 0.0, 0.0                   {E-lon(deg),Dxy(km),Dz(km)}
Center radii    : 695700.0, 695700.0, 695700.0 km {Equator_a, b, pole_c}
Output units    : KM-S
Calendar mode   : Gregorian
Output type     : GEOMETRIC cartesian states
Output format   : 2 (position and velocity)
Reference frame : ICRF
*******************************************************************************
            JDTDB,            Calendar Date (TDB),                      X,                      Y,                      Z,                     VX,                     VY,                     VZ,
**************************************************************************************************************************************************************************************************
$$SOE
2463200.750000000, A.D. 2031-Nov-30 06:00:00.0000,  5.676943990371280E+07,  1.249521557641139E+08,  5.416250311123636E+07, -2.797000756572954E+01,  1.041035790777413E+01,  4.513780857369929E+00,
2463200.791666667, A.D. 2031-Nov-30 07:00:00.0000,  5.666873271321135E+07,  1.249895997788828E+08,  5.417873828829533E+07, -2.797842929868953E+01,  1.039187154062745E+01,  4.505761515745189E+00,
2463200.833333333, A.D. 2031-Nov-30 08:00:00.0000,  5.656799522934783E+07,  1.250269772321604E+08,  5.419494459100124E+07, -2.798683721031020E+01,  1.037337930182995E+01,  4.497739550379652E+00,
2463200.875000000, A.D. 2031-Nov-30 09:00:00.0000,  5.646722750189000E+07,  1.250642881028126E+08,  5.421112200991146E+07, -2.799523129451925E+01,  1.035488119357421E+01,  4.489714962846840E+00,
2463200.916666667, A.D. 2031-Nov-30 10:00:00.0000,  5.636642958062755E+07,  1.251015323697134E+08,  5.422727053558904E+07, -2.800361154518679E+01,  1.033637721808449E+01,  4.481687754736927E+00,
2463200.958333333, A.D. 2031-Nov-30 11:00:00.0000,  5.626560151537234E+07,  1.251387100117449E+08,  5.424339015860280E+07, -2.801197795612582E+01,  1.031786737761716E+01,  4.473657927656838E+00,
2463201.000000000, A.D. 2031-Nov-30 12:00:00.0000,  5.616474335595861E+07,  1.251758210077971E+08,  5.425948086952736E+07, -2.802033052109318E+01,  1.029935167446105E+01,  4.465625483230337E+00,
2463201.041666667, A.D. 2031-Nov-30 13:00:00.0000,  5.606385515224319E+07,  1.252128653367685E+08,  5.427554265894321E+07, -2.802866923379015E+01,  1.028083011093789E+01,  4.457590423098115E+00,
2463201.083333333, A.D. 2031-Nov-30 14:00:00.0000,  5.596293695410567E+07,  1.252498429775662E+08,  5.429157551743680E+07, -2.803699408786325E+01,  1.026230268940266E+01,  4.449552748917880E+00,
2463201.125000000, A.D. 2031-Nov-30 15:00:00.0000,  5.586198881144861E+07,  1.252867539091055E+08,  5.430757943560058E+07, -2.804530507690493E+01,  1.024376941224400E+01,  4.441512462364424E+00,
2463201.166666667, A.D. 2031-Nov-30 16:00:00.0000,  5.576101077419773E+07,  1.253235981103105E+08,  5.432355440403301E+07, -2.805360219445435E+01,  1.022523028188447E+01,  4.433469565129699E+00,
2463201.208333333, A.D. 2031-Nov-30 17:00:00.0000,  5.566000289230214E+07,  1.253603755601142E+08,  5.433950041333874E+07, -2.806188543399809E+01,  1.020668530078099E+01,  4.425424058922888E+00,
2463201.250000000, A.D. 2031-Nov-30 18:00:00.0000,  5.555896521573444E+07,  1.253970862374582E+08,  5.435541745412856E+07, -2.807015478897089E+01,  1.018813447142509E+01,  4.417375945470460E+00,
2463201.291666667, A.D. 2031-Nov-30 19:00:00.0000,  5.545789779449097E+07,  1.254337301212936E+08,  5.437130551701952E+07, -2.807841025275638E+01,  1.016957779634325E+01,  4.409325226516235E+00,
2463201.333333333, A.D. 2031-Nov-30 20:00:00.0000,  5.535680067859201E+07,  1.254703071905801E+08,  5.438716459263498E+07, -2.808665181868788E+01,  1.015101527809719E+01,  4.401271903821427E+00,
2463201.375000000, A.D. 2031-Nov-30 21:00:00.0000,  5.525567391808190E+07,  1.255068174242872E+08,  5.440299467160469E+07, -2.809487948004903E+01,  1.013244691928414E+01,  4.393215979164699E+00,
2463201.416666667, A.D. 2031-Nov-30 22:00:00.0000,  5.515451756302925E+07,  1.255432608013934E+08,  5.441879574456478E+07, -2.810309323007462E+01,  1.011387272253712E+01,  4.385157454342202E+00,
2463201.458333333, A.D. 2031-Nov-30 23:00:00.0000,  5.505333166352715E+07,  1.255796373008871E+08,  5.443456780215792E+07, -2.811129306195127E+01,  1.009529269052520E+01,  4.377096331167611E+00,
2463201.500000000, A.D. 2031-Dec-01 00:00:00.0000,  5.495211626969323E+07,  1.256159469017661E+08,  5.445031083503336E+07, -2.811947896881817E+01,  1.007670682595372E+01,  4.369032611472162E+00,
2463201.541666667, A.D. 2031-Dec-01 01:00:00.0000,  5.485087143166995E+07,  1.256521895830382E+08,  5.446602483384691E+07, -2.812765094376786E+01,  1.005811513156452E+01,  4.360966297104678E+00,
2463201.583333333, A.D. 2031-Dec-01 02:00:00.0000,  5.474959719962473E+07,  1.256883653237210E+08,  5.448170978926114E+07, -2.813580897984691E+01,  1.003951761013619E+01,  4.352897389931584E+00,
2463201.625000000, A.D. 2031-Dec-01 03:00:00.0000,  5.464829362375010E+07,  1.257244741028421E+08,  5.449736569194532E+07, -2.814395307005662E+01,  1.002091426448421E+01,  4.344825891836944E+00,
2463201.666666667, A.D. 2031-Dec-01 04:00:00.0000,  5.454696075426382E+07,  1.257605158994396E+08,  5.451299253257555E+07, -2.815208320735384E+01,  1.000230509746119E+01,  4.336751804722456E+00,
2463201.708333333, A.D. 2031-Dec-01 05:00:00.0000,  5.444559864140914E+07,  1.257964906925617E+08,  5.452859030183480E+07, -2.816019938465161E+01,  9.983690111957014E+00,  4.328675130507474E+00,
2463201.750000000, A.D. 2031-Dec-01 06:00:00.0000,  5.434420733545488E+07,  1.258323984612670E+08,  5.454415899041300E+07, -2.816830159481992E+01,  9.965069310899004E+00,  4.320595871129003E+00,
2463201.791666667, A.D. 2031-Dec-01 07:00:00.0000,  5.424278688669559E+07,  1.258682391846250E+08,  5.455969858900708E+07, -2.817638983068639E+01,  9.946442697252079E+00,  4.312514028541709E+00,
2463201.833333333, A.D. 2031-Dec-01 08:00:00.0000,  5.414133734545176E+07,  1.259040128417157E+08,  5.457520908832102E+07, -2.818446408503704E+01,  9.927810274018890E+00,  4.304429604717908E+00,
2463201.875000000, A.D. 2031-Dec-01 09:00:00.0000,  5.403985876206985E+07,  1.259397194116301E+08,  5.459069047906594E+07, -2.819252435061692E+01,  9.909172044239918E+00,  4.296342601647560E+00,
2463201.916666667, A.D. 2031-Dec-01 10:00:00.0000,  5.393835118692259E+07,  1.259753588734701E+08,  5.460614275196019E+07, -2.820057062013090E+01,  9.890528010993620E+00,  4.288253021338257E+00,
2463201.958333333, A.D. 2031-Dec-01 11:00:00.0000,  5.383681467040899E+07,  1.260109312063488E+08,  5.462156589772933E+07, -2.820860288624430E+01,  9.871878177396493E+00,  4.280160865815203E+00,
2463202.000000000, A.D. 2031-Dec-01 12:00:00.0000,  5.373524926295456E+07,  1.260464363893907E+08,  5.463695990710626E+07, -2.821662114158363E+01,  9.853222546603179E+00,  4.272066137121197E+00,
2463202.041666667, A.D. 2031-Dec-01 13:00:00.0000,  5.363365501501141E+07,  1.260818744017316E+08,  5.465232477083126E+07, -2.822462537873727E+01,  9.834561121806523E+00,  4.263968837316602E+00,
2463202.083333333, A.D. 2031-Dec-01 14:00:00.0000,  5.353203197705841E+07,  1.261172452225188E+08,  5.466766047965209E+07, -2.823261559025610E+01,  9.815893906237644E+00,  4.255868968479324E+00,
2463202.125000000, A.D. 2031-Dec-01 15:00:00.0000,  5.343038019960131E+07,  1.261525488309115E+08,  5.468296702432399E+07, -2.824059176865430E+01,  9.797220903165977E+00,  4.247766532704768E+00,
2463202.166666667, A.D. 2031-Dec-01 16:00:00.0000,  5.332869973317287E+07,  1.261877852060806E+08,  5.469824439560978E+07, -2.824855390640992E+01,  9.778542115899308E+00,  4.239661532105812E+00,
2463202.208333333, A.D. 2031-Dec-01 17:00:00.0000,  5.322699062833299E+07,  1.262229543272089E+08,  5.471349258427992E+07, -2.825650199596557E+01,  9.759857547783801E+00,  4.231553968812756E+00,
2463202.250000000, A.D. 2031-Dec-01 18:00:00.0000,  5.312525293566887E+07,  1.262580561734916E+08,  5.472871158111258E+07, -2.826443602972912E+01,  9.741167202204002E+00,  4.223443844973282E+00,
2463202.291666667, A.D. 2031-Dec-01 19:00:00.0000,  5.302348670579504E+07,  1.262930907241360E+08,  5.474390137689367E+07, -2.827235600007432E+01,  9.722471082582851E+00,  4.215331162752405E+00,
2463202.333333333, A.D. 2031-Dec-01 20:00:00.0000,  5.292169198935362E+07,  1.263280579583615E+08,  5.475906196241695E+07, -2.828026189934146E+01,  9.703769192381664E+00,  4.207215924332418E+00,
2463202.375000000, A.D. 2031-Dec-01 21:00:00.0000,  5.281986883701432E+07,  1.263629578554006E+08,  5.477419332848407E+07, -2.828815371983806E+01,  9.685061535100109E+00,  4.199098131912842E+00,
2463202.416666667, A.D. 2031-Dec-01 22:00:00.0000,  5.271801729947458E+07,  1.263977903944980E+08,  5.478929546590459E+07, -2.829603145383937E+01,  9.666348114276174E+00,  4.190977787710354E+00,
2463202.458333333, A.D. 2031-Dec-01 23:00:00.0000,  5.261613742745977E+07,  1.264325555549114E+08,  5.480436836549611E+07, -2.830389509358918E+01,  9.647628933486130E+00,  4.182854893958742E+00,
2463202.500000000, A.D. 2031-Dec-02 00:00:00.0000,  5.251422927172318E+07,  1.264672533159115E+08,  5.481941201808433E+07, -2.831174463130032E+01,  9.628903996344464E+00,  4.174729452908823E+00,
